{
  "type": "FeatureCollection",
  "features": [
    {
      "type": "Feature",
      "properties": {
        "norad_id": 15362,
        "name": "NOVA 3",
        "group": "nnss",
        "lat": 71.72372171670493,
        "lon": 80.1126850365537,
        "alt_km": 1165.1952242385014,
        "timestamp": "2025-12-08T08:59:01.034343+00:00",
        "meta_object_name": "NOVA 3",
        "meta_object_id": "1984-110A",
        "meta_epoch": "2025-12-07T20:29:57.370272",
        "meta_mean_motion": 13.23043665,
        "meta_eccentricity": 0.00308769,
        "meta_inclination": 90.1223,
        "meta_ra_of_asc_node": 80.4771,
        "meta_arg_of_pericenter": 345.7321,
        "meta_mean_anomaly": 129.504,
        "meta_ephemeris_type": 0,
        "meta_classification_type": "U",
        "meta_norad_cat_id": 15362,
        "meta_element_set_no": 999,
        "meta_rev_at_epoch": 98634,
        "meta_bstar": 0.00026254462,
        "meta_mean_motion_dot": 1.19e-06,
        "meta_mean_motion_ddot": 0,
        "tle_line1": "1 15362U 84110A   25341.85413623  .00000119  00000+0  26254-3 0  9990",
        "tle_line2": "2 15362  90.1223  80.4771 0030876 345.7321 129.5040 13.23043665986346"
      },
      "geometry": {
        "type": "Point",
        "coordinates": [
          80.1126850365537,
          71.72372171670493
        ]
      }
    },
    {
      "type": "Feature",
      "properties": {
        "norad_id": 15935,
        "name": "OSCAR 30",
        "group": "nnss",
        "lat": -53.43956260554314,
        "lon": 99.99811095391428,
        "alt_km": 1239.8781646888474,
        "timestamp": "2025-12-08T08:59:01.034355+00:00",
        "meta_object_name": "OSCAR 30",
        "meta_object_id": "1985-066A",
        "meta_epoch": "2025-12-07T21:16:26.776128",
        "meta_mean_motion": 13.36076993,
        "meta_eccentricity": 0.0169408,
        "meta_inclination": 90.1649,
        "meta_ra_of_asc_node": 99.7677,
        "meta_arg_of_pericenter": 97.4493,
        "meta_mean_anomaly": 24.8367,
        "meta_ephemeris_type": 0,
        "meta_classification_type": "U",
        "meta_norad_cat_id": 15935,
        "meta_element_set_no": 999,
        "meta_rev_at_epoch": 96388,
        "meta_bstar": 0.0002237762,
        "meta_mean_motion_dot": 1.35e-06,
        "meta_mean_motion_ddot": 0,
        "tle_line1": "1 15935U 85066A   25341.88642102  .00000135  00000+0  22378-3 0  9997",
        "tle_line2": "2 15935  90.1649  99.7677 0169408  97.4493  24.8367 13.36076993963884"
      },
      "geometry": {
        "type": "Point",
        "coordinates": [
          99.99811095391428,
          -53.43956260554314
        ]
      }
    },
    {
      "type": "Feature",
      "properties": {
        "norad_id": 15936,
        "name": "OSCAR 24",
        "group": "nnss",
        "lat": 23.194141578193733,
        "lon": 92.15145029203057,
        "alt_km": 1097.9639043725092,
        "timestamp": "2025-12-08T08:59:01.034365+00:00",
        "meta_object_name": "OSCAR 24",
        "meta_object_id": "1985-066B",
        "meta_epoch": "2025-12-07T20:50:07.499904",
        "meta_mean_motion": 13.3593472,
        "meta_eccentricity": 0.01704171,
        "meta_inclination": 90.1788,
        "meta_ra_of_asc_node": 92.2192,
        "meta_arg_of_pericenter": 103.9366,
        "meta_mean_anomaly": 8.3198,
        "meta_ephemeris_type": 0,
        "meta_classification_type": "U",
        "meta_norad_cat_id": 15936,
        "meta_element_set_no": 999,
        "meta_rev_at_epoch": 96578,
        "meta_bstar": 0.00022749924,
        "meta_mean_motion_dot": 1.37e-06,
        "meta_mean_motion_ddot": 0,
        "tle_line1": "1 15936U 85066B   25341.86814236  .00000137  00000+0  22750-3 0  9991",
        "tle_line2": "2 15936  90.1788  92.2192 0170417 103.9366   8.3198 13.35934720965783"
      },
      "geometry": {
        "type": "Point",
        "coordinates": [
          92.15145029203057,
          23.194141578193733
        ]
      }
    },
    {
      "type": "Feature",
      "properties": {
        "norad_id": 17070,
        "name": "POLAR BEAR",
        "group": "nnss",
        "lat": -35.954078724069845,
        "lon": -176.32908331120714,
        "alt_km": 1016.3862353343957,
        "timestamp": "2025-12-08T08:59:01.034376+00:00",
        "meta_object_name": "POLAR BEAR",
        "meta_object_id": "1986-088A",
        "meta_epoch": "2025-12-07T23:15:48.332160",
        "meta_mean_motion": 13.75249324,
        "meta_eccentricity": 0.00406711,
        "meta_inclination": 89.6178,
        "meta_ra_of_asc_node": 183.9646,
        "meta_arg_of_pericenter": 133.1048,
        "meta_mean_anomaly": 347.2075,
        "meta_ephemeris_type": 0,
        "meta_classification_type": "U",
        "meta_norad_cat_id": 17070,
        "meta_element_set_no": 999,
        "meta_rev_at_epoch": 95913,
        "meta_bstar": 0.0001492572,
        "meta_mean_motion_dot": 1.55e-06,
        "meta_mean_motion_ddot": 0,
        "tle_line1": "1 17070U 86088A   25341.96930940  .00000155  00000+0  14926-3 0  9995",
        "tle_line2": "2 17070  89.6178 183.9646 0040671 133.1048 347.2075 13.75249324959136"
      },
      "geometry": {
        "type": "Point",
        "coordinates": [
          -176.32908331120714,
          -35.954078724069845
        ]
      }
    },
    {
      "type": "Feature",
      "properties": {
        "norad_id": 18361,
        "name": "OSCAR 27",
        "group": "nnss",
        "lat": -21.066240857945942,
        "lon": 79.25321929037817,
        "alt_km": 1112.2420838718435,
        "timestamp": "2025-12-08T08:59:01.034387+00:00",
        "meta_object_name": "OSCAR 27",
        "meta_object_id": "1987-080A",
        "meta_epoch": "2025-12-07T18:48:15.514560",
        "meta_mean_motion": 13.44905199,
        "meta_eccentricity": 0.01025825,
        "meta_inclination": 90.3742,
        "meta_ra_of_asc_node": 79.0869,
        "meta_arg_of_pericenter": 238.168,
        "meta_mean_anomaly": 120.945,
        "meta_ephemeris_type": 0,
        "meta_classification_type": "U",
        "meta_norad_cat_id": 18361,
        "meta_element_set_no": 999,
        "meta_rev_at_epoch": 87490,
        "meta_bstar": 0.00030567383,
        "meta_mean_motion_dot": 1.92e-06,
        "meta_mean_motion_ddot": 0,
        "tle_line1": "1 18361U 87080A   25341.78351290  .00000192  00000+0  30567-3 0  9997",
        "tle_line2": "2 18361  90.3742  79.0869 0102582 238.1680 120.9450 13.44905199874905"
      },
      "geometry": {
        "type": "Point",
        "coordinates": [
          79.25321929037817,
          -21.066240857945942
        ]
      }
    },
    {
      "type": "Feature",
      "properties": {
        "norad_id": 18362,
        "name": "OSCAR 29",
        "group": "nnss",
        "lat": -1.6574413744360152,
        "lon": 79.57831848616205,
        "alt_km": 1106.6862076433817,
        "timestamp": "2025-12-08T08:59:01.034397+00:00",
        "meta_object_name": "OSCAR 29",
        "meta_object_id": "1987-080B",
        "meta_epoch": "2025-12-07T21:06:08.560800",
        "meta_mean_motion": 13.44447084,
        "meta_eccentricity": 0.01037467,
        "meta_inclination": 90.3753,
        "meta_ra_of_asc_node": 79.5489,
        "meta_arg_of_pericenter": 261.3012,
        "meta_mean_anomaly": 221.3412,
        "meta_ephemeris_type": 0,
        "meta_classification_type": "U",
        "meta_norad_cat_id": 18362,
        "meta_element_set_no": 999,
        "meta_rev_at_epoch": 87444,
        "meta_bstar": 0.00026711013,
        "meta_mean_motion_dot": 1.68e-06,
        "meta_mean_motion_ddot": 0,
        "tle_line1": "1 18362U 87080B   25341.87926575  .00000168  00000+0  26711-3 0  9991",
        "tle_line2": "2 18362  90.3753  79.5489 0103746 261.3012 221.3412 13.44447084874448"
      },
      "geometry": {
        "type": "Point",
        "coordinates": [
          79.57831848616205,
          -1.6574413744360152
        ]
      }
    },
    {
      "type": "Feature",
      "properties": {
        "norad_id": 19070,
        "name": "OSCAR 23",
        "group": "nnss",
        "lat": 33.24599181370576,
        "lon": 16.046503791187614,
        "alt_km": 1285.5041176294026,
        "timestamp": "2025-12-08T08:59:01.034407+00:00",
        "meta_object_name": "OSCAR 23",
        "meta_object_id": "1988-033A",
        "meta_epoch": "2025-12-07T21:01:38.802720",
        "meta_mean_motion": 13.27786162,
        "meta_eccentricity": 0.01891195,
        "meta_inclination": 90.3216,
        "meta_ra_of_asc_node": 16.2419,
        "meta_arg_of_pericenter": 193.4597,
        "meta_mean_anomaly": 340.7718,
        "meta_ephemeris_type": 0,
        "meta_classification_type": "U",
        "meta_norad_cat_id": 19070,
        "meta_element_set_no": 999,
        "meta_rev_at_epoch": 82188,
        "meta_bstar": 0.00023757017,
        "meta_mean_motion_dot": 1.26e-06,
        "meta_mean_motion_ddot": 0,
        "tle_line1": "1 19070U 88033A   25341.87614355  .00000126  00000+0  23757-3 0  9998",
        "tle_line2": "2 19070  90.3216  16.2419 0189119 193.4597 340.7718 13.27786162821880"
      },
      "geometry": {
        "type": "Point",
        "coordinates": [
          16.046503791187614,
          33.24599181370576
        ]
      }
    }
  ]
}